COMMENT,ORIGINATOR,NORAD_CAT_ID,OBJECT_NAME,OBJECT_TYPE,CLASSIFICATION_TYPE,INTLDES,EPOCH,EPOCH_MICROSECONDS,MEAN_MOTION,ECCENTRICITY,INCLINATION,RA_OF_ASC_NODE,ARG_OF_PERICENTER,MEAN_ANOMALY,EPHEMERIS_TYPE,ELEMENT_SET_NO,REV_AT_EPOCH,BSTAR,MEAN_MOTION_DOT,MEAN_MOTION_DDOT,FILE,TLE_LINE0,TLE_LINE1,TLE_LINE2,OBJECT_ID,OBJECT_NUMBER,SEMIMAJOR_AXIS,PERIOD,APOGEE,PERIGEE,DECAYED
"GENERATED VIA SPACETRACK.ORG API","18 SPCS","55095","SPACEBEE-162","PAYLOAD","U","23001CQ","2024-05-13 03:16:46","432128","15.43194445","0.0008998","97.4218","199.6392","259.3656","100.6578","0","999","7566","0.0015192","0.00067894","0","4316169","0 SPACEBEE-162","1 55095U 23001CQ  24134.13664852  .00067894  00000-0  15192-2 0  9993","2 55095  97.4218 199.6392 0008998 259.3656 100.6578 15.43194445 75667","2023-001CQ","55095","6814.826","93.313","442.822","430.559","0"
"GENERATED VIA SPACETRACK.ORG API","18 SPCS","55095","SPACEBEE-162","PAYLOAD","U","23001CQ","2024-05-14 04:10:40","349568","15.43358286","0.0009142","97.4221","200.697","255.4424","104.581","0","999","7582","0.0014803","0.00066509","0","4316753","0 SPACEBEE-162","1 55095U 23001CQ  24135.17407812  .00066509  00000-0  14803-2 0  9999","2 55095  97.4221 200.6970 0009142 255.4424 104.5810 15.43358286 75823","2023-001CQ","55095","6814.343","93.303","442.438","429.979","0"
"GENERATED VIA SPACETRACK.ORG API","18 SPCS","55095","SPACEBEE-162","PAYLOAD","U","23001CQ","2024-05-14 10:24:07","370496","15.43394575","0.0009161","97.4221","200.962","254.3879","105.6358","0","999","7586","0.0015287","0.00068791","0","4317118","0 SPACEBEE-162","1 55095U 23001CQ  24135.43341864  .00068791  00000-0  15287-2 0  9994","2 55095  97.4221 200.9620 0009161 254.3879 105.6358 15.43394575 75865","2023-001CQ","55095","6814.236","93.301","442.344","429.859","0"
"GENERATED VIA SPACETRACK.ORG API","18 SPCS","55095","SPACEBEE-162","PAYLOAD","U","23001CQ","2024-05-15 03:31:03","700704","15.43522326","0.0009272","97.422","201.6887","251.654","108.3699","0","999","7597","0.0024569","0.00111702","0","4317764","0 SPACEBEE-162","1 55095U 23001CQ  24136.14657061  .00111702  00000-0  24569-2 0  9996","2 55095  97.4220 201.6887 0009272 251.6540 108.3699 15.43522326 75972","2023-001CQ","55095","6813.860","93.293","442.043","429.408","0"
"GENERATED VIA SPACETRACK.ORG API","18 SPCS","55095","SPACEBEE-162","PAYLOAD","U","23001CQ","2024-05-15 03:31:03","700704","15.43522326","0.0009272","97.422","201.6887","251.654","108.3699","0","999","7597","0.0024569","0.00111702","0","4318101","0 SPACEBEE-162","1 55095U 23001CQ  24136.14657061  .00111702  00000-0  24569-2 0  9996","2 55095  97.4220 201.6887 0009272 251.6540 108.3699 15.43522326 75972","2023-001CQ","55095","6813.860","93.293","442.043","429.408","0"
"GENERATED VIA SPACETRACK.ORG API","18 SPCS","55095","SPACEBEE-162","PAYLOAD","U","23001CQ","2024-05-15 17:31:13","625184","15.43611847","0.000934","97.4221","202.284","250.2286","109.7955","0","999","7606","0.0019821","0.00090124","0","4318411","0 SPACEBEE-162","1 55095U 23001CQ  24136.73001881  .00090124  00000-0  19821-2 0  9993","2 55095  97.4221 202.2840 0009340 250.2286 109.7955 15.43611847 76065","2023-001CQ","55095","6813.597","93.288","441.826","429.098","0"
"GENERATED VIA SPACETRACK.ORG API","18 SPCS","55095","SPACEBEE-162","PAYLOAD","U","23001CQ","2024-05-15 17:31:13","625184","15.43611847","0.000934","97.4221","202.284","250.2286","109.7955","0","999","7606","0.0019821","0.00090124","0","4318417","0 SPACEBEE-162","1 55095U 23001CQ  24136.73001881  .00090124  00000-0  19821-2 0  9993","2 55095  97.4221 202.2840 0009340 250.2286 109.7955 15.43611847 76065","2023-001CQ","55095","6813.597","93.288","441.826","429.098","0"
"GENERATED VIA SPACETRACK.ORG API","18 SPCS","55095","SPACEBEE-162","PAYLOAD","U","23001CQ","2024-05-16 10:38:00","820320","15.43751192","0.0009382","97.4219","203.0113","247.5088","112.5166","0","999","7617","0.0021801","0.00099724","0","4319073","0 SPACEBEE-162","1 55095U 23001CQ  24137.44306505  .00099724  00000-0  21801-2 0  9999","2 55095  97.4219 203.0113 0009382 247.5088 112.5166 15.43751192 76175","2023-001CQ","55095","6813.187","93.279","441.444","428.660","0"
"GENERATED VIA SPACETRACK.ORG API","18 SPCS","55095","SPACEBEE-162","PAYLOAD","U","23001CQ","2024-05-16 10:38:00","820320","15.43751192","0.0009382","97.4219","203.0113","247.5088","112.5166","0","999","7617","0.0021801","0.00099724","0","4319123","0 SPACEBEE-162","1 55095U 23001CQ  24137.44306505  .00099724  00000-0  21801-2 0  9999","2 55095  97.4219 203.0113 0009382 247.5088 112.5166 15.43751192 76175","2023-001CQ","55095","6813.187","93.279","441.444","428.660","0"
"GENERATED VIA SPACETRACK.ORG API","18 SPCS","55095","SPACEBEE-162","PAYLOAD","U","23001CQ","2024-05-17 03:44:41","919936","15.43907904","0.0009465","97.422","203.7381","244.5459","115.481","0","999","7628","0.0017804","0.0008167","0","4319622","0 SPACEBEE-162","1 55095U 23001CQ  24138.15604074  .00081670  00000-0  17804-2 0  9999","2 55095  97.4220 203.7381 0009465 244.5459 115.4810 15.43907904 76286","2023-001CQ","55095","6812.726","93.270","441.039","428.143","0"
"GENERATED VIA SPACETRACK.ORG API","18 SPCS","55095","SPACEBEE-162","PAYLOAD","U","23001CQ","2024-05-17 03:44:41","919936","15.43907904","0.0009465","97.422","203.7381","244.5459","115.481","0","999","7628","0.0017804","0.0008167","0","4320024","0 SPACEBEE-162","1 55095U 23001CQ  24138.15604074  .00081670  00000-0  17804-2 0  9999","2 55095  97.4220 203.7381 0009465 244.5459 115.4810 15.43907904 76286","2023-001CQ","55095","6812.726","93.270","441.039","428.143","0"
"GENERATED VIA SPACETRACK.ORG API","18 SPCS","55095","SPACEBEE-162","PAYLOAD","U","23001CQ","2024-05-18 03:04:33","729888","15.44117699","0.0009596","97.4221","204.7297","241.831","118.1969","0","999","7643","0.0020446","0.00094628","0","4320728","0 SPACEBEE-162","1 55095U 23001CQ  24139.12816817  .00094628  00000-0  20446-2 0  9990","2 55095  97.4221 204.7297 0009596 241.8310 118.1969 15.44117699 76432","2023-001CQ","55095","6812.109","93.257","440.511","427.437","0"
"GENERATED VIA SPACETRACK.ORG API","18 SPCS","55095","SPACEBEE-162","PAYLOAD","U","23001CQ","2024-05-18 10:51:08","106624","15.44211079","0.0009531","97.4221","205.0611","241.1842","118.8449","0","999","7648","0.0025196","0.00117337","0","4321074","0 SPACEBEE-162","1 55095U 23001CQ  24139.45217716  .00117337  00000-0  25196-2 0  9999","2 55095  97.4221 205.0611 0009531 241.1842 118.8449 15.44211079 76480","2023-001CQ","55095","6811.834","93.252","440.192","427.207","0"
"GENERATED VIA SPACETRACK.ORG API","18 SPCS","55095","SPACEBEE-162","PAYLOAD","U","23001CQ","2024-05-18 10:51:08","106624","15.44211079","0.0009531","97.4221","205.0611","241.1842","118.8449","0","999","7648","0.0025196","0.00117337","0","4321083","0 SPACEBEE-162","1 55095U 23001CQ  24139.45217716  .00117337  00000-0  25196-2 0  9999","2 55095  97.4221 205.0611 0009531 241.1842 118.8449 15.44211079 76480","2023-001CQ","55095","6811.834","93.252","440.192","427.207","0"
"GENERATED VIA SPACETRACK.ORG API","18 SPCS","55095","SPACEBEE-162","PAYLOAD","U","23001CQ","2024-05-18 21:44:17","822976","15.44316928","0.0009736","97.4224","205.5239","240.0057","120.0226","0","999","7655","0.00219","0.00102151","0","4321432","0 SPACEBEE-162","1 55095U 23001CQ  24139.90576184  .00102151  00000-0  21900-2 0  9993","2 55095  97.4224 205.5239 0009736 240.0057 120.0226 15.44316928 76552","2023-001CQ","55095","6811.523","93.245","440.020","426.756","0"
"GENERATED VIA SPACETRACK.ORG API","18 SPCS","55095","SPACEBEE-162","PAYLOAD","U","23001CQ","2024-05-19 03:57:30","898944","15.44365568","0.0009763","97.4223","205.7885","238.9848","121.0442","0","999","7659","0.0017354","0.00080843","0","4321746","0 SPACEBEE-162","1 55095U 23001CQ  24140.16494096  .00080843  00000-0  17354-2 0  9995","2 55095  97.4223 205.7885 0009763 238.9848 121.0442 15.44365568 76593","2023-001CQ","55095","6811.380","93.242","439.895","426.595","0"
"GENERATED VIA SPACETRACK.ORG API","18 SPCS","55095","SPACEBEE-162","PAYLOAD","U","23001CQ","2024-05-19 17:57:12","592224","15.44482518","0.0009812","97.4221","206.3843","237.6397","122.3902","0","999","7668","0.0020506","0.00096108","0","4322067","0 SPACEBEE-162","1 55095U 23001CQ  24140.74806241  .00096108  00000-0  20506-2 0  9992","2 55095  97.4221 206.3843 0009812 237.6397 122.3902 15.44482518 76682","2023-001CQ","55095","6811.036","93.235","439.584","426.218","0"
"GENERATED VIA SPACETRACK.ORG API","18 SPCS","55095","SPACEBEE-162","PAYLOAD","U","23001CQ","2024-05-20 03:16:58","253376","15.44563944","0.000987","97.4222","206.7808","236.2664","123.7645","0","999","7674","0.0021634","0.00101755","0","4322688","0 SPACEBEE-162","1 55095U 23001CQ  24141.13678534  .00101755  00000-0  21634-2 0  9996","2 55095  97.4222 206.7808 0009870 236.2664 123.7645 15.44563944 76743","2023-001CQ","55095","6810.797","93.230","439.384","425.939","0"
"GENERATED VIA SPACETRACK.ORG API","18 SPCS","55095","SPACEBEE-162","PAYLOAD","U","23001CQ","2024-05-20 20:23:07","855008","15.44692203","0.0009918","97.4222","207.5086","234.327","125.7056","0","999","7685","0.0019293","0.00091007","0","4322975","0 SPACEBEE-162","1 55095U 23001CQ  24141.84939647  .00091007  00000-0  19293-2 0  9995","2 55095  97.4222 207.5086 0009918 234.3270 125.7056 15.44692203 76856","2023-001CQ","55095","6810.420","93.222","439.039","425.530","0"
"GENERATED VIA SPACETRACK.ORG API","18 SPCS","55095","SPACEBEE-162","PAYLOAD","U","23001CQ","2024-05-21 04:09:32","323392","15.44753155","0.0009936","97.4222","207.8394","232.821","127.2132","0","999","7690","0.001824","0.0008616","0","4323618","0 SPACEBEE-162","1 55095U 23001CQ  24142.17329078  .00086160  00000-0  18240-2 0  9998","2 55095  97.4222 207.8394 0009936 232.8210 127.2132 15.44753155 76900","2023-001CQ","55095","6810.240","93.219","438.872","425.339","0"
